      2.10          N: GNSS NAV DATA                        RINEX VERSION / TYPE
fic2rin                                 09/01/2019 00:19:26 PGM / RUN BY / DATE
                                                            END OF HEADER
20 19  8 31  4  0  0.0 5.266843363643e-04 1.136868377216e-13 0.000000000000e+00
    6.900000000000e+01-1.339375000000e+02 5.193430612945e-09 2.098371847210e+00
   -6.990507245064e-06 4.755081958137e-03 6.178393959999e-06 5.153627595901e+03
    5.328000000000e+05 7.450580596924e-09 2.590664456305e+00 2.421438694000e-08
    9.317161253736e-01 2.449375000000e+02 2.416759917488e+00-8.539284266894e-09
   -4.132314984649e-10 1.000000000000e+00 2.068000000000e+03 0.000000000000e+00
    2.400000000000e+00 0.000000000000e+00-8.847564458847e-09 6.900000000000e+01
    5.256000000000e+05 4.000000000000e+00
17 19  8 31  3 59 44.0 1.166174188256e-04 7.162270776462e-12 0.000000000000e+00
    2.300000000000e+01 1.278750000000e+02 3.748370420388e-09-1.722962055097e+00
    6.599351763725e-06 1.304191199597e-02 1.240521669388e-05 5.153567134857e+03
    5.327840000000e+05 2.756714820862e-07 6.744218020894e-01 2.682209014893e-07
    9.843810299354e-01 1.541875000000e+02-1.704648080635e+00-7.649604351012e-09
    2.150089559860e-10 1.000000000000e+00 2.068000000000e+03 0.000000000000e+00
    2.400000000000e+00 0.000000000000e+00-1.117587089539e-08 2.300000000000e+01
    5.257200000000e+05 4.000000000000e+00
15 19  8 31  3 59 44.0-2.903989516199e-04 2.728484105319e-12 0.000000000000e+00
    7.000000000000e+00-1.437500000000e+00 4.981278918833e-09-2.522827742450e+00
   -4.190951585770e-07 1.167865772732e-02 1.352094113827e-05 5.153757120132e+03
    5.327840000000e+05 1.508742570877e-07-2.618714917153e+00-1.639127731323e-07
    9.284229460966e-01 9.956250000000e+01 8.036258754320e-01-8.039977754488e-09
    5.896674191577e-10 1.000000000000e+00 2.068000000000e+03 0.000000000000e+00
    2.400000000000e+00 0.000000000000e+00-1.071020960808e-08 7.000000000000e+00
    5.258400000000e+05 4.000000000000e+00
29 19  8 31  3 59 44.0 1.107500866055e-04-1.011812855722e-11 0.000000000000e+00
    2.200000000000e+01 1.008750000000e+02 3.769442726705e-09-1.353979328777e+00
    5.224719643593e-06 1.206077984534e-03 1.193210482597e-05 5.153705545425e+03
    5.327840000000e+05 0.000000000000e+00 6.857067843371e-01 7.450580596924e-09
    9.858866915551e-01 1.624062500000e+02 1.969877172103e+00-7.699249276065e-09
    2.525105180766e-10 1.000000000000e+00 2.068000000000e+03 0.000000000000e+00
    2.400000000000e+00 0.000000000000e+00-9.778887033463e-09 2.200000000000e+01
    5.262000000000e+05 4.000000000000e+00
28 19  8 31  3 59 44.0 7.634875364602e-04-1.023181539495e-12 0.000000000000e+00
    3.500000000000e+01-3.803125000000e+01 4.184817171576e-09-8.120237639806e-01
   -2.034008502960e-06 1.902645546943e-02 1.156702637672e-05 5.153707113266e+03
    5.327840000000e+05-2.421438694000e-07-3.357080431075e-01-1.490116119385e-08
    9.811361284179e-01 1.704687500000e+02-1.460427843059e+00-8.183198005901e-09
   -7.386021943175e-10 1.000000000000e+00 2.068000000000e+03 0.000000000000e+00
    2.400000000000e+00 0.000000000000e+00-1.117587089539e-08 3.500000000000e+01
    5.279400000000e+05 4.000000000000e+00
32 19  8 31  3 59 44.0 3.929436206818e-05 1.409716787748e-11 0.000000000000e+00
    7.000000000000e+00 2.084375000000e+01 4.448756737146e-09-9.116027558224e-01
    1.195818185806e-06 3.213144256733e-03 1.257471740246e-05 5.153630676270e+03
    5.327840000000e+05 3.539025783539e-08-2.529113393804e+00 2.235174179077e-08
    9.570697713519e-01 1.357812500000e+02-2.493272619155e+00-7.967117576712e-09
    5.625234313588e-10 1.000000000000e+00 2.068000000000e+03 0.000000000000e+00
    2.400000000000e+00 0.000000000000e+00 4.656612873077e-10 7.000000000000e+00
    5.307600000000e+05 4.000000000000e+00
 9 19  8 31  3 59 44.0-1.938315108418e-05-9.208633855451e-12 0.000000000000e+00
    2.500000000000e+01 2.900000000000e+01 4.577333521457e-09-1.180263826772e+00
    1.551583409309e-06 1.339183887467e-03 1.368485391140e-05 5.153614938736e+03
    5.327840000000e+05 0.000000000000e+00-2.536260077778e+00 5.960464477539e-08
    9.528529363209e-01 1.158750000000e+02 1.681422889761e+00-8.012833766689e-09
    6.428839215530e-10 1.000000000000e+00 2.068000000000e+03 0.000000000000e+00
    2.400000000000e+00 0.000000000000e+00 1.396983861923e-09 2.500000000000e+01
    5.312400000000e+05 4.000000000000e+00
 9 19  8 31  5 59 44.0-1.944927498698e-05-9.208633855451e-12 0.000000000000e+00
    2.600000000000e+01 3.218750000000e+01 4.461971573312e-09-1.297638121322e-01
    1.374632120132e-06 1.338807749562e-03 1.314096152782e-05 5.153614816666e+03
    5.399840000000e+05-9.313225746155e-08-2.536317261783e+00 2.235174179077e-08
    9.528574830703e-01 1.231250000000e+02 1.681138845198e+00-7.974617889130e-09
    5.718095324479e-10 1.000000000000e+00 2.068000000000e+03 0.000000000000e+00
    2.400000000000e+00 0.000000000000e+00 1.396983861923e-09 2.600000000000e+01
    5.328000000000e+05 4.000000000000e+00
15 19  8 31  5 59 44.0-2.903793938458e-04 2.728484105319e-12 0.000000000000e+00
    1.900000000000e+01 3.218750000000e+00 4.903775690512e-09-1.472712707870e+00
    1.341104507446e-07 1.167831034400e-02 1.337938010693e-05 5.153757030487e+03
    5.399840000000e+05 2.812594175339e-07-2.618772667307e+00-6.519258022308e-08
    9.284271344311e-01 9.562500000000e+01 8.036431188474e-01-8.100337411567e-09
    5.582375385485e-10 1.000000000000e+00 2.068000000000e+03 0.000000000000e+00
    2.400000000000e+00 0.000000000000e+00-1.071020960808e-08 1.900000000000e+01
    5.328000000000e+05 4.000000000000e+00
29 19  8 31  5 59 44.0 1.106774434447e-04-1.011812855722e-11 0.000000000000e+00
    2.300000000000e+01 1.067187500000e+02 3.703011388145e-09-3.029020086273e-01
    5.515292286873e-06 1.207776134834e-03 1.266039907932e-05 5.153709260941e+03
    5.399840000000e+05-1.117587089539e-08 6.856514187394e-01-1.862645149231e-09
    9.858884924073e-01 1.475312500000e+02 1.968955146039e+00-7.695320540989e-09
    2.414386283166e-10 1.000000000000e+00 2.068000000000e+03 0.000000000000e+00
    2.400000000000e+00 0.000000000000e+00-9.778887033463e-09 2.300000000000e+01
    5.328000000000e+05 4.000000000000e+00
32 19  8 31  5 59 44.0 3.939541056752e-05 1.409716787748e-11 0.000000000000e+00
    4.800000000000e+01 1.003125000000e+01 4.436613374184e-09 1.385483616325e-01
    5.587935447693e-07 3.211589762941e-03 1.305714249611e-05 5.153627822876e+03
    5.399840000000e+05 3.166496753693e-08-2.529170655344e+00 4.842877388000e-08
    9.570738777629e-01 1.295625000000e+02-2.493216776646e+00-7.947831059065e-09
    5.532373302697e-10 1.000000000000e+00 2.068000000000e+03 0.000000000000e+00
    2.400000000000e+00 0.000000000000e+00 4.656612873077e-10 4.800000000000e+01
    5.328000000000e+05 4.000000000000e+00
28 19  8 31  5 59 44.0 7.634800858796e-04-1.023181539495e-12 0.000000000000e+00
    4.000000000000e+01-4.100000000000e+01 4.296964700113e-09 2.381158754191e-01
   -2.142041921616e-06 1.902498758864e-02 1.125037670135e-05 5.153704179764e+03
    5.399840000000e+05-1.601874828339e-07-3.357672283842e-01-5.401670932770e-08
    9.811309277442e-01 1.806875000000e+02-1.460408134626e+00-8.212127782371e-09
   -7.232444117471e-10 1.000000000000e+00 2.068000000000e+03 0.000000000000e+00
    2.400000000000e+00 0.000000000000e+00-1.117587089539e-08 4.000000000000e+01
    5.328000000000e+05 4.000000000000e+00
 2 19  8 31  6  0  0.0-2.946960739791e-04-8.299139153678e-12 0.000000000000e+00
    2.700000000000e+01 6.137500000000e+01 4.995208070466e-09-2.506908298633e+00
    3.252178430557e-06 1.910666795447e-02 9.890645742416e-07 5.153520473480e+03
    5.400000000000e+05 2.086162567139e-07 1.602479892028e+00-6.705522537231e-08
    9.555276538136e-01 3.586875000000e+02-1.717843070671e+00-8.377848971038e-09
    2.885834492304e-10 1.000000000000e+00 2.068000000000e+03 0.000000000000e+00
    2.400000000000e+00 0.000000000000e+00-2.048909664154e-08 2.700000000000e+01
    5.328000000000e+05 4.000000000000e+00
 1 19  8 31  6  0  0.0-1.134057529271e-04-1.205080479849e-11 0.000000000000e+00
    8.000000000000e+01 3.456250000000e+01 4.510902182897e-09-2.758399073753e+00
    1.879408955574e-06 9.104906581342e-03 1.145526766777e-06 5.153643562317e+03
    5.400000000000e+05 6.146728992462e-08 1.673218293652e+00-8.381903171539e-08
    9.764309011120e-01 3.655312500000e+02 7.590206576285e-01-8.327489730516e-09
    1.535778257043e-10 1.000000000000e+00 2.068000000000e+03 0.000000000000e+00
    2.400000000000e+00 0.000000000000e+00 5.587935447693e-09 8.000000000000e+01
    5.328000000000e+05 4.000000000000e+00
 5 19  8 31  6  0  0.0-1.021195203066e-06-3.410605131648e-13 0.000000000000e+00
    2.700000000000e+01-1.351875000000e+02 4.688052419058e-09 1.541544454714e-01
   -6.895512342453e-06 5.883034085855e-03 7.979571819305e-06 5.153759168625e+03
    5.400000000000e+05 3.911554813385e-08 2.687347885615e+00 1.639127731323e-07
    9.507662372872e-01 2.190625000000e+02 7.693230241348e-01-8.416064848597e-09
   -4.593048461762e-10 1.000000000000e+00 2.068000000000e+03 0.000000000000e+00
    2.400000000000e+00 0.000000000000e+00-1.117587089539e-08 2.700000000000e+01
    5.328000000000e+05 4.000000000000e+00
 6 19  8 31  6  0  0.0-4.197936505079e-05-1.216449163621e-11 0.000000000000e+00
    4.100000000000e+01 3.643750000000e+01 4.660908431259e-09-2.448445422551e+00
    1.866370439529e-06 1.369839766994e-03 1.462176442146e-06 5.153641319275e+03
    5.400000000000e+05 5.960464477539e-08 1.664938455278e+00-2.607703208923e-08
    9.760576492675e-01 3.624375000000e+02-1.122826971210e+00-8.530712481273e-09
    9.964700784071e-11 1.000000000000e+00 2.068000000000e+03 0.000000000000e+00
    2.400000000000e+00 0.000000000000e+00 4.190951585770e-09 4.100000000000e+01
    5.328000000000e+05 4.000000000000e+00
